[{"OBJECT_NAME":"STARLINK-5036","OBJECT_ID":"2022-119AH","EPOCH":"2026-03-09T22:46:18.179328","MEAN_MOTION":15.08844601,"ECCENTRICITY":0.00014809,"INCLINATION":53.2198,"RA_OF_ASC_NODE":312.9791,"ARG_OF_PERICENTER":108.3264,"MEAN_ANOMALY":251.789,"EPHEMERIS_TYPE":0,"CLASSIFICATION_TYPE":"U","NORAD_CAT_ID":53917,"ELEMENT_SET_NO":999,"REV_AT_EPOCH":19186,"BSTAR":7.4660157e-5,"MEAN_MOTION_DOT":9.01e-6,"MEAN_MOTION_DDOT":0},{"OBJECT_NAME":"ION SCV-016","OBJECT_ID":"2025-009V","EPOCH":"2026-03-09T15:48:19.049184","MEAN_MOTION":14.46743407,"ECCENTRICITY":0.06066159,"INCLINATION":97.4455,"RA_OF_ASC_NODE":117.8911,"ARG_OF_PERICENTER":59.3392,"MEAN_ANOMALY":306.6163,"EPHEMERIS_TYPE":0,"CLASSIFICATION_TYPE":"U","NORAD_CAT_ID":62628,"ELEMENT_SET_NO":999,"REV_AT_EPOCH":6113,"BSTAR":0.0005439681,"MEAN_MOTION_DOT":0.00025234,"MEAN_MOTION_DDOT":0}]
